HORYU-4                 
1 41340U 16012D   20113.85643497  .00000509  00000-0  31760-4 0  9990
2 41340  31.0060 325.8403 0014055 316.1991  43.7530 15.01469977229514
E-ST@R-II               
1 41459U 16025D   20113.86347715  .00000914  00000-0  49804-4 0  9998
2 41459  98.0972 220.9821 0166333  39.2469 322.0659 15.06303261219072
AAUSAT 4                
1 41460U 16025E   20113.88537088  .00002077  00000-0  10472-3 0  9996
2 41460  98.0962 223.1393 0154904  28.6611 332.3015 15.08556096219263
BEESAT-4                
1 41619U 16040W   20113.74479636  .00001601  00000-0  69157-4 0  9995
2 41619  97.3246 174.5851 0011655  24.8059 335.3736 15.23875935200911
CANX-7                  
1 41788U 16059F   20113.51874706  .00008304  00000-0  11570-2 0  9995
2 41788  98.2531 199.9777 0033769 118.5357 241.9288 14.77617632191554
RAVAN                   
1 41849U 16067B   20113.72047411  .00001232  00000-0  10804-3 0  9993
2 41849  97.9280 222.6448 0010480  76.4074 283.8314 14.98517764188279
CELTEE 1                
1 41850U 16067C   20113.53108773 -.00000131  00000-0 -60352-5 0  9997
2 41850  97.9221 220.3446 0010360  76.5173 283.7202 14.97161607188137
OPTICUBE 04             
1 41851U 16067D   20113.71932347  .00000506  00000-0  49318-4 0  9992
2 41851  97.9210 220.1841 0010607  78.8182 281.4231 14.96911324188148
AEROCUBE 8D             
1 41852U 16067E   20113.86836575 -.00000263  00000-0 -17628-4 0  9996
2 41852  97.9215 220.1680 0011044  77.4258 282.8197 14.96883885188146
AEROCUBE 8C             
1 41853U 16067F   20113.69810469  .00000524  00000-0  51018-4 0  9991
2 41853  97.9206 219.9049 0011361  80.9900 279.2606 14.96843667188113
PROMETHEUS 2-1          
1 41854U 16067G   20113.87982064  .00000078  00000-0  12063-4 0  9994
2 41854  97.9216 220.3835 0011398  78.0530 282.1969 14.97148544188153
PROMETHEUS 2-3          
1 41855U 16067H   20113.54645722  .00000103  00000-0  14190-4 0  9998
2 41855  97.9219 220.0755 0011595  79.4202 280.8324 14.97158517188101
INS-1B                  
1 41954U 17008G   20113.82542548  .00001457  00000-0  61806-4 0  9996
2 41954  97.3586 179.2123 0010399 130.8170 229.3971 15.24650937176896
BGUSAT                  
1 41999U 17008BD  20113.45924137  .00003146  00000-0  12033-3 0  9996
2 41999  97.3693 182.6894 0009271 139.7070 220.4858 15.27284680176405
DIDO-2                  
1 42000U 17008BE  20113.84354775  .00000948  00000-0  41529-4 0  9998
2 42000  97.3594 179.7545 0009359 146.8209 213.3618 15.24392439176290
PEASSS                  
1 42015U 17008BV  20113.86188515  .00001337  00000-0  55569-4 0  9995
2 42015  97.3616 181.2622 0007176 147.3022 212.8661 15.25498963176875
AL-FARABI 1             
1 42016U 17008BW  20113.84756107  .00001757  00000-0  70462-4 0  9997
2 42016  97.3641 182.2029 0007091 146.4678 213.7011 15.26306367177045
NAYIF-1 (EO-88)         
1 42017U 17008BX  20113.76219139  .00001807  00000-0  72321-4 0  9990
2 42017  97.3638 182.1298 0007134 146.5308 213.6383 15.26346449177055
NSIGHT                  
1 42726U 98067MF  20113.31907025  .01797958  11944-4  71554-3 0  9999
2 42726  51.6176 144.3445 0005556 359.1102   0.9906 16.22888268166688
UCLSAT                  
1 42765U 17036A   20113.85308001  .00001331  00000-0  58767-4 0  9998
2 42765  97.3065 169.5736 0010286 214.5654 145.4916 15.23406703158114
LITUANICASAT-2          
1 42768U 17036D   20113.78297831  .00002450  00000-0  10421-3 0  9998
2 42768  97.3118 169.3953 0014022 205.5734 154.4811 15.23866665157363
AALTO-1                 
1 42775U 17036L   20113.82504367  .00000807  00000-0  38512-4 0  9992
2 42775  97.3044 167.5189 0013009 208.7195 151.3326 15.21762249157212
URSA MAIOR              
1 42776U 17036M   20113.82089467  .00000929  00000-0  43689-4 0  9998
2 42776  97.3055 167.7758 0012814 208.3694 151.6846 15.21936767157221
COMPASS 2               
1 42777U 17036N   20113.86627331  .00001798  00000-0  77577-4 0  9999
2 42777  97.3109 169.9141 0011537 205.5232 154.5437 15.23759056157336
DIAMOND RED             
1 42783U 17036U   20113.82278077  .00001070  00000-0  48770-4 0  9997
2 42783  97.3066 168.8684 0010928 217.1901 142.8580 15.22735148157288
PEGASUS                 
1 42784U 17036V   20113.86712036  .00001233  00000-0  55162-4 0  9994
2 42784  97.3070 169.2988 0010827 215.9270 144.1240 15.23101465157311
DIAMOND GREEN           
1 42785U 17036W   20113.82157682  .00001093  00000-0  49760-4 0  9992
2 42785  97.3069 168.9009 0010821 217.8523 142.1954 15.22734448157352
DIAMOND BLUE            
1 42786U 17036X   20113.82079164  .00001073  00000-0  48867-4 0  9996
2 42786  97.3068 168.8959 0010657 217.9630 142.0856 15.22735375157352
NUDTSAT                 
1 42787U 17036Y   20113.97082124  .00001693  00000-0  71963-4 0  9994
2 42787  97.3124 170.6693 0009451 218.1811 141.8759 15.24352865157244
SUCHAI                  
1 42788U 17036Z   20113.84537277  .00001486  00000-0  64859-4 0  9991
2 42788  97.3078 169.8154 0010411 213.9793 146.0779 15.23629196157416
SKCUBE                  
1 42789U 17036AA  20113.82016653  .00001387  00000-0  60991-4 0  9993
2 42789  97.3073 169.6600 0010301 214.3120 145.7453 15.23480533157328
VZLUSAT-1               
1 42790U 17036AB  20113.82811561  .00001780  00000-0  75526-4 0  9993
2 42790  97.3096 170.5265 0009890 211.5575 148.5070 15.24343641157377
ROBUSTA-1B              
1 42792U 17036AD  20113.84645274  .00001393  00000-0  60927-4 0  9992
2 42792  97.3075 169.9198 0009872 214.2850 145.7751 15.23666864157356
CICERO 6                
1 42793U 17036AE  20113.74463002  .00000990  00000-0  44911-4 0  9996
2 42793  97.3052 169.2978 0009097 217.1402 142.9206 15.23052627157388
D-SAT                   
1 42794U 17036AF  20113.75018169  .00000039  00000-0  87830-5 0  9990
2 42794  97.4996 149.1482 0126005 190.2059 169.6600 14.91252664154391
CORVUS BC2              
1 42846U 17042X   20113.91397531  .00000170  00000-0  21956-4 0  9998
2 42846  97.5306 359.9528 0011147 101.4713 258.7759 14.92087191151123
CORVUS BC1              
1 42847U 17042Y   20113.91343040  .00000183  00000-0  23128-4 0  9992
2 42847  97.5309   0.1117 0010792 100.7241 259.5195 14.92188237151125
MIRATA                  
1 43015U 17073C   20113.81446186  .00000719  00000-0  61561-4 0  9996
2 43015  97.7212  28.1441 0252289 229.9011 127.9844 14.79564926130995
MAKERSAT 0              
1 43016U 17073D   20113.48932003  .00000501  00000-0  44765-4 0  9994
2 43016  97.7246  28.0210 0254978 231.8831 125.9148 14.79155189130920
ASTERIA                 
1 43020U 98067NH  20113.59478201  .02643446  12051-4  73169-3 0  9993
2 43020  51.6416 155.7503 0001877 296.9454  63.1375 16.27167672138745
DELLINGR (RBLE)         
1 43021U 98067NJ  20113.86824286  .00015503  00000-0  13412-3 0  9999
2 43021  51.6361 203.6248 0000819 228.6261 131.4666 15.69391399138132
AEROCUBE 7B (OCSD B)    
1 43042U 17071F   20113.87758322  .00004139  00000-0  10085-3 0  9992
2 43042  51.6381 339.1998 0004360 194.0533 166.0333 15.43238884133790
AEROCUBE 7C (OCSD C)    
1 43043U 17071G   20113.81528039  .00004282  00000-0  10408-3 0  9995
2 43043  51.6381 339.5486 0004523 198.4565 161.6258 15.43212974133756
CHEFSAT                 
1 43044U 17071H   20113.77621155  .00009769  00000-0  19418-3 0  9999
2 43044  51.6383 326.7853 0004314 202.7955 157.2842 15.47630786133923
ASGARDIA 1              
1 43049U 17071N   20113.87531959  .00003855  00000-0  94423-4 0  9997
2 43049  51.6392 338.5160 0002055 207.0761 153.0118 15.43277568133777
ISARA                   
1 43050U 17071P   20113.78865844  .00007555  00000-0  15683-3 0  9993
2 43050  51.6366 329.0122 0002094 204.4608 155.6280 15.46733213133895
PROPCUBE 2 (FAUNA)      
1 43052U 17071R   20113.87736219  .00004524  00000-0  10768-3 0  9990
2 43052  51.6385 337.0482 0002059 202.8185 157.2710 15.43702062133788
CORVUS BC3              
1 43118U 18004H   20113.46087889  .00000916  00000-0  41633-4 0  9994
2 43118  97.4474 184.1819 0008812 245.0277 115.0044 15.23284250126479
MICROMAS-2A             
1 43131U 18004W   20113.61937430  .00002357  00000-0  97028-4 0  9992
2 43131  97.4516 185.8772 0007712 241.9001 118.1457 15.25103333126583
SPACEBEE-4              
1 43139U 18004AE  20113.76452248  .00003279  00000-0  12915-3 0  9990
2 43139  97.4548 187.0722 0007064 240.9272 119.1259 15.26312029126669
SPACEBEE-3              
1 43140U 18004AF  20113.87158592  .00004030  00000-0  15416-3 0  9994
2 43140  97.4563 187.7797 0006833 238.0383 122.0192 15.27146590126715
SPACEBEE-2              
1 43141U 18004AG  20113.86189437  .00004242  00000-0  16073-3 0  9991
2 43141  97.4575 187.9941 0006846 237.1246 122.9334 15.27431055126725
SPACEBEE-1              
1 43142U 18004AH  20113.84212860  .00004421  00000-0  16577-3 0  9995
2 43142  97.4580 188.2028 0006825 236.8657 123.1927 15.27758884126724
CICERO 7                
1 43143U 18004AJ  20113.81915876  .00002092  00000-0  86313-4 0  9998
2 43143  97.4497 186.2692 0005785 251.3454 108.7156 15.25164777126631
GOMX-4B                 
1 43196U 18015E   20113.94368015  .00000424  00000-0  20317-4 0  9998
2 43196  97.4278 242.9348 0017575 302.7004  57.2538 15.24209998123448
GOMX-4A                 
1 43197U 18015F   20113.91882535  .00000785  00000-0  34854-4 0  9995
2 43197  97.4264 242.9809 0017652 303.3914 173.2489 15.24425620123456
1KUNS-PF                
1 43466U 98067NP  20113.63598918  .00147313  19211-4  44801-3 0  9996
2 43466  51.6273 186.7117 0006447 352.3250   7.7656 15.91725642111591
UBAKUSAT                
1 43467U 98067NQ  20113.86760474  .00028921  00000-0  21267-3 0  9996
2 43467  51.6330 207.2699 0000541 318.2365  41.8592 15.72837570111352
CUBERRT                 
1 43546U 98067NU  20113.52571264  .00014822  00000-0  11815-3 0  9997
2 43546  51.6349 208.0094 0002851 245.8533 114.2167 15.71420911101444
